{
  "type": "FeatureCollection",
  "features": [
    {
      "type": "Feature",
      "properties": {
        "norad_id": 41772,
        "name": "SKYSAT-C5",
        "group": "resource",
        "lat": 50.22112993808546,
        "lon": 20.675113344102623,
        "alt_km": 455.3061822726213,
        "timestamp": "2025-12-11T10:53:15.542307+00:00",
        "meta_object_name": "SKYSAT-C5",
        "meta_object_id": "2016-058C",
        "meta_epoch": "2025-12-11T01:16:55.377408",
        "meta_mean_motion": 15.35316112,
        "meta_eccentricity": 0.0002463,
        "meta_inclination": 97.0761,
        "meta_ra_of_asc_node": 28.8717,
        "meta_arg_of_pericenter": 138.4276,
        "meta_mean_anomaly": 221.7155,
        "meta_ephemeris_type": 0,
        "meta_classification_type": "U",
        "meta_norad_cat_id": 41772,
        "meta_element_set_no": 999,
        "meta_rev_at_epoch": 51490,
        "meta_bstar": 0.00044038,
        "meta_mean_motion_dot": 0.00015041,
        "meta_mean_motion_ddot": 0,
        "tle_line1": "1 41772U 16058C   25345.05341872  .00015041  00000+0  44038-3 0  9992",
        "tle_line2": "2 41772  97.0761  28.8717 0002463 138.4276 221.7155 15.35316112514902"
      },
      "geometry": {
        "type": "Point",
        "coordinates": [
          20.675113344102623,
          50.22112993808546
        ]
      }
    },
    {
      "type": "Feature",
      "properties": {
        "norad_id": 41773,
        "name": "SKYSAT-C2",
        "group": "resource",
        "lat": 50.58160059360009,
        "lon": 1.3915612850227286,
        "alt_km": 446.83480046453496,
        "timestamp": "2025-12-11T10:53:15.542317+00:00",
        "meta_object_name": "SKYSAT-C2",
        "meta_object_id": "2016-058D",
        "meta_epoch": "2025-12-11T01:17:33.038304",
        "meta_mean_motion": 15.37205771,
        "meta_eccentricity": 0.0004412,
        "meta_inclination": 97.0366,
        "meta_ra_of_asc_node": 9.6517,
        "meta_arg_of_pericenter": 38.6729,
        "meta_mean_anomaly": 321.4831,
        "meta_ephemeris_type": 0,
        "meta_classification_type": "U",
        "meta_norad_cat_id": 41773,
        "meta_element_set_no": 999,
        "meta_rev_at_epoch": 51610,
        "meta_bstar": 0.00045815,
        "meta_mean_motion_dot": 0.00016637,
        "meta_mean_motion_ddot": 0,
        "tle_line1": "1 41773U 16058D   25345.05385461  .00016637  00000+0  45815-3 0  9991",
        "tle_line2": "2 41773  97.0366   9.6517 0004412  38.6729 321.4831 15.37205771516102"
      },
      "geometry": {
        "type": "Point",
        "coordinates": [
          1.3915612850227286,
          50.58160059360009
        ]
      }
    },
    {
      "type": "Feature",
      "properties": {
        "norad_id": 41774,
        "name": "SKYSAT-C3",
        "group": "resource",
        "lat": -26.83426928402952,
        "lon": -164.2685410315569,
        "alt_km": 439.465676024206,
        "timestamp": "2025-12-11T10:53:15.542328+00:00",
        "meta_object_name": "SKYSAT-C3",
        "meta_object_id": "2016-058E",
        "meta_epoch": "2025-12-11T02:13:07.879584",
        "meta_mean_motion": 15.44300229,
        "meta_eccentricity": 0.0001616,
        "meta_inclination": 96.9302,
        "meta_ra_of_asc_node": 18.9149,
        "meta_arg_of_pericenter": 106.2091,
        "meta_mean_anomaly": 253.9336,
        "meta_ephemeris_type": 0,
        "meta_classification_type": "U",
        "meta_norad_cat_id": 41774,
        "meta_element_set_no": 999,
        "meta_rev_at_epoch": 51700,
        "meta_bstar": 0.00056526,
        "meta_mean_motion_dot": 0.00025995,
        "meta_mean_motion_ddot": 0,
        "tle_line1": "1 41774U 16058E   25345.09245231  .00025995  00000+0  56526-3 0  9994",
        "tle_line2": "2 41774  96.9302  18.9149 0001616 106.2091 253.9336 15.44300229517003"
      },
      "geometry": {
        "type": "Point",
        "coordinates": [
          -164.2685410315569,
          -26.83426928402952
        ]
      }
    },
    {
      "type": "Feature",
      "properties": {
        "norad_id": 41785,
        "name": "ALSAT 1B",
        "group": "resource",
        "lat": 38.862097853514705,
        "lon": -9.02772490215915,
        "alt_km": 648.6416540418422,
        "timestamp": "2025-12-11T10:53:15.542339+00:00",
        "meta_object_name": "ALSAT 1B",
        "meta_object_id": "2016-059C",
        "meta_epoch": "2025-12-11T04:11:03.796800",
        "meta_mean_motion": 14.72072318,
        "meta_eccentricity": 0.001066,
        "meta_inclination": 97.7815,
        "meta_ra_of_asc_node": 357.0313,
        "meta_arg_of_pericenter": 107.5236,
        "meta_mean_anomaly": 252.7138,
        "meta_ephemeris_type": 0,
        "meta_classification_type": "U",
        "meta_norad_cat_id": 41785,
        "meta_element_set_no": 999,
        "meta_rev_at_epoch": 49291,
        "meta_bstar": 0.0001043,
        "meta_mean_motion_dot": 6.09e-06,
        "meta_mean_motion_ddot": 0,
        "tle_line1": "1 41785U 16059C   25345.17434950  .00000609  00000+0  10430-3 0  9993",
        "tle_line2": "2 41785  97.7815 357.0313 0010660 107.5236 252.7138 14.72072318492911"
      },
      "geometry": {
        "type": "Point",
        "coordinates": [
          -9.02772490215915,
          38.862097853514705
        ]
      }
    },
    {
      "type": "Feature",
      "properties": {
        "norad_id": 41787,
        "name": "PATHFINDER 1",
        "group": "resource",
        "lat": 39.13072077421862,
        "lon": 174.70140591488132,
        "alt_km": 654.5877773018155,
        "timestamp": "2025-12-11T10:53:15.542349+00:00",
        "meta_object_name": "PATHFINDER 1",
        "meta_object_id": "2016-059E",
        "meta_epoch": "2025-12-11T00:25:59.733408",
        "meta_mean_motion": 14.67315928,
        "meta_eccentricity": 0.0030054,
        "meta_inclination": 97.8139,
        "meta_ra_of_asc_node": 347.8715,
        "meta_arg_of_pericenter": 86.425,
        "meta_mean_anomaly": 274.0391,
        "meta_ephemeris_type": 0,
        "meta_classification_type": "U",
        "meta_norad_cat_id": 41787,
        "meta_element_set_no": 999,
        "meta_rev_at_epoch": 49211,
        "meta_bstar": 0.00022273,
        "meta_mean_motion_dot": 1.219e-05,
        "meta_mean_motion_ddot": 0,
        "tle_line1": "1 41787U 16059E   25345.01805247  .00001219  00000+0  22273-3 0  9995",
        "tle_line2": "2 41787  97.8139 347.8715 0030054  86.4250 274.0391 14.67315928492117"
      },
      "geometry": {
        "type": "Point",
        "coordinates": [
          174.70140591488132,
          39.13072077421862
        ]
      }
    },
    {
      "type": "Feature",
      "properties": {
        "norad_id": 41790,
        "name": "SCATSAT 1",
        "group": "resource",
        "lat": 75.83106347347713,
        "lon": 7.539491399101147,
        "alt_km": 602.0144701870204,
        "timestamp": "2025-12-11T10:53:15.542360+00:00",
        "meta_object_name": "SCATSAT 1",
        "meta_object_id": "2016-059H",
        "meta_epoch": "2025-12-11T04:02:21.458688",
        "meta_mean_motion": 14.78927983,
        "meta_eccentricity": 0.0056204,
        "meta_inclination": 98.1464,
        "meta_ra_of_asc_node": 41.8188,
        "meta_arg_of_pericenter": 132.9642,
        "meta_mean_anomaly": 227.6302,
        "meta_ephemeris_type": 0,
        "meta_classification_type": "U",
        "meta_norad_cat_id": 41790,
        "meta_element_set_no": 999,
        "meta_rev_at_epoch": 7379,
        "meta_bstar": 0.00034488,
        "meta_mean_motion_dot": 2.555e-05,
        "meta_mean_motion_ddot": 0,
        "tle_line1": "1 41790U 16059H   25345.16830392  .00002555  00000+0  34488-3 0  9999",
        "tle_line2": "2 41790  98.1464  41.8188 0056204 132.9642 227.6302 14.78927983 73795"
      },
      "geometry": {
        "type": "Point",
        "coordinates": [
          7.539491399101147,
          75.83106347347713
        ]
      }
    },
    {
      "type": "Feature",
      "properties": {
        "norad_id": 41875,
        "name": "GOKTURK 1A",
        "group": "resource",
        "lat": -57.352170291634344,
        "lon": 44.92353835273586,
        "alt_km": 692.1396319585483,
        "timestamp": "2025-12-11T10:53:15.542372+00:00",
        "meta_object_name": "GOKTURK 1A",
        "meta_object_id": "2016-073A",
        "meta_epoch": "2025-12-11T04:52:36.919776",
        "meta_mean_motion": 14.62777045,
        "meta_eccentricity": 0.0001252,
        "meta_inclination": 98.1424,
        "meta_ra_of_asc_node": 237.5888,
        "meta_arg_of_pericenter": 78.3668,
        "meta_mean_anomaly": 281.7674,
        "meta_ephemeris_type": 0,
        "meta_classification_type": "U",
        "meta_norad_cat_id": 41875,
        "meta_element_set_no": 999,
        "meta_rev_at_epoch": 48134,
        "meta_bstar": 0.00019413,
        "meta_mean_motion_dot": 9.43e-06,
        "meta_mean_motion_ddot": 0,
        "tle_line1": "1 41875U 16073A   25345.20320509  .00000943  00000+0  19413-3 0  9998",
        "tle_line2": "2 41875  98.1424 237.5888 0001252  78.3668 281.7674 14.62777045481342"
      },
      "geometry": {
        "type": "Point",
        "coordinates": [
          44.92353835273586,
          -57.352170291634344
        ]
      }
    }
  ]
}